CCSDS_OMM_VERS = 2.0
CREATION_DATE  = 
ORIGINATOR     = 

OBJECT_NAME    = COSMOS 2228
OBJECT_ID      = 1992-094A
CENTER_NAME    = EARTH
REF_FRAME      = TEME
TIME_SYSTEM    = UTC
MEAN_ELEMENT_THEORY = SGP/SGP4

EPOCH          = 2025-11-27T02:42:16.423776
MEAN_MOTION    = 14.96620430
ECCENTRICITY   = .0016404
INCLINATION    = 82.5177
RA_OF_ASC_NODE = 335.4875
ARG_OF_PERICENTER = 289.2237
MEAN_ANOMALY   = 70.7210

EPHEMERIS_TYPE = 0
CLASSIFICATION_TYPE = U
NORAD_CAT_ID   = 22286
ELEMENT_SET_NO = 999
REV_AT_EPOCH   = 76071
BSTAR          = .24027E-3
MEAN_MOTION_DOT = .2769E-4
MEAN_MOTION_DDOT = 0

CCSDS_OMM_VERS = 2.0
CREATION_DATE  = 
ORIGINATOR     = 

OBJECT_NAME    = SL-16 R/B
OBJECT_ID      = 1993-016B
CENTER_NAME    = EARTH
REF_FRAME      = TEME
TIME_SYSTEM    = UTC
MEAN_ELEMENT_THEORY = SGP/SGP4

EPOCH          = 2025-11-26T19:15:42.804000
MEAN_MOTION    = 14.15289040
ECCENTRICITY   = .00081696
INCLINATION    = 71.0090
RA_OF_ASC_NODE = 71.2741
ARG_OF_PERICENTER = 127.6684
MEAN_ANOMALY   = 232.5181

EPHEMERIS_TYPE = 0
CLASSIFICATION_TYPE = U
NORAD_CAT_ID   = 22566
ELEMENT_SET_NO = 999
REV_AT_EPOCH   = 68761
BSTAR          = .41567845E-4
MEAN_MOTION_DOT = .33E-6
MEAN_MOTION_DDOT = 0

CCSDS_OMM_VERS = 2.0
CREATION_DATE  = 
ORIGINATOR     = 

OBJECT_NAME    = COSMOS 2242
OBJECT_ID      = 1993-024A
CENTER_NAME    = EARTH
REF_FRAME      = TEME
TIME_SYSTEM    = UTC
MEAN_ELEMENT_THEORY = SGP/SGP4

EPOCH          = 2025-11-27T04:27:07.714944
MEAN_MOTION    = 14.96011329
ECCENTRICITY   = .0014866
INCLINATION    = 82.5199
RA_OF_ASC_NODE = 4.7111
ARG_OF_PERICENTER = 291.9660
MEAN_ANOMALY   = 67.9981

EPHEMERIS_TYPE = 0
CLASSIFICATION_TYPE = U
NORAD_CAT_ID   = 22626
ELEMENT_SET_NO = 999
REV_AT_EPOCH   = 76506
BSTAR          = .23899E-3
MEAN_MOTION_DOT = .2711E-4
MEAN_MOTION_DDOT = 0

CCSDS_OMM_VERS = 2.0
CREATION_DATE  = 
ORIGINATOR     = 

OBJECT_NAME    = SL-16 R/B
OBJECT_ID      = 1993-059B
CENTER_NAME    = EARTH
REF_FRAME      = TEME
TIME_SYSTEM    = UTC
MEAN_ELEMENT_THEORY = SGP/SGP4

EPOCH          = 2025-11-26T23:48:55.514016
MEAN_MOTION    = 14.17207930
ECCENTRICITY   = .0017031
INCLINATION    = 70.9897
RA_OF_ASC_NODE = 227.6917
ARG_OF_PERICENTER = 358.9464
MEAN_ANOMALY   = 1.1621

EPHEMERIS_TYPE = 0
CLASSIFICATION_TYPE = U
NORAD_CAT_ID   = 22803
ELEMENT_SET_NO = 999
REV_AT_EPOCH   = 66498
BSTAR          = -.19081E-4
MEAN_MOTION_DOT = -.87E-6
MEAN_MOTION_DDOT = 0

CCSDS_OMM_VERS = 2.0
CREATION_DATE  = 
ORIGINATOR     = 

OBJECT_NAME    = ARIANE 40 R/B
OBJECT_ID      = 1993-061H
CENTER_NAME    = EARTH
REF_FRAME      = TEME
TIME_SYSTEM    = UTC
MEAN_ELEMENT_THEORY = SGP/SGP4

EPOCH          = 2025-11-27T04:26:22.445664
MEAN_MOTION    = 14.32786055
ECCENTRICITY   = .0010017
INCLINATION    = 98.5095
RA_OF_ASC_NODE = 36.9967
ARG_OF_PERICENTER = 223.0314
MEAN_ANOMALY   = 137.0088

EPHEMERIS_TYPE = 0
CLASSIFICATION_TYPE = U
NORAD_CAT_ID   = 22830
ELEMENT_SET_NO = 999
REV_AT_EPOCH   = 67942
BSTAR          = .11657E-3
MEAN_MOTION_DOT = .274E-5
MEAN_MOTION_DDOT = 0

CCSDS_OMM_VERS = 2.0
CREATION_DATE  = 
ORIGINATOR     = 

OBJECT_NAME    = COSMOS 2278
OBJECT_ID      = 1994-023A
CENTER_NAME    = EARTH
REF_FRAME      = TEME
TIME_SYSTEM    = UTC
MEAN_ELEMENT_THEORY = SGP/SGP4

EPOCH          = 2025-11-27T04:31:31.689408
MEAN_MOTION    = 14.14349702
ECCENTRICITY   = .0009257
INCLINATION    = 71.0558
RA_OF_ASC_NODE = 29.5456
ARG_OF_PERICENTER = 200.9639
MEAN_ANOMALY   = 159.1106

EPHEMERIS_TYPE = 0
CLASSIFICATION_TYPE = U
NORAD_CAT_ID   = 23087
ELEMENT_SET_NO = 999
REV_AT_EPOCH   = 63031
BSTAR          = .94535E-4
MEAN_MOTION_DOT = .134E-5
MEAN_MOTION_DDOT = 0

CCSDS_OMM_VERS = 2.0
CREATION_DATE  = 
ORIGINATOR     = 

OBJECT_NAME    = SL-16 R/B
OBJECT_ID      = 1994-023B
CENTER_NAME    = EARTH
REF_FRAME      = TEME
TIME_SYSTEM    = UTC
MEAN_ELEMENT_THEORY = SGP/SGP4

EPOCH          = 2025-11-26T23:58:40.171584
MEAN_MOTION    = 14.14993004
ECCENTRICITY   = .000111
INCLINATION    = 70.9994
RA_OF_ASC_NODE = 286.5411
ARG_OF_PERICENTER = 107.0484
MEAN_ANOMALY   = 253.0760

EPHEMERIS_TYPE = 0
CLASSIFICATION_TYPE = U
NORAD_CAT_ID   = 23088
ELEMENT_SET_NO = 999
REV_AT_EPOCH   = 63156
BSTAR          = .15285E-3
MEAN_MOTION_DOT = .248E-5
MEAN_MOTION_DDOT = 0

CCSDS_OMM_VERS = 2.0
CREATION_DATE  = 
ORIGINATOR     = 

OBJECT_NAME    = SL-16 R/B
OBJECT_ID      = 1994-074B
CENTER_NAME    = EARTH
REF_FRAME      = TEME
TIME_SYSTEM    = UTC
MEAN_ELEMENT_THEORY = SGP/SGP4

EPOCH          = 2025-11-27T01:02:58.443072
MEAN_MOTION    = 14.79262576
ECCENTRICITY   = .0006361
INCLINATION    = 97.7220
RA_OF_ASC_NODE = 0.9710
ARG_OF_PERICENTER = 183.2349
MEAN_ANOMALY   = 206.9467

EPHEMERIS_TYPE = 0
CLASSIFICATION_TYPE = U
NORAD_CAT_ID   = 23343
ELEMENT_SET_NO = 999
REV_AT_EPOCH   = 67207
BSTAR          = .88061E-4
MEAN_MOTION_DOT = .605E-5
MEAN_MOTION_DDOT = 0

CCSDS_OMM_VERS = 2.0
CREATION_DATE  = 
ORIGINATOR     = 

OBJECT_NAME    = SL-16 R/B
OBJECT_ID      = 1994-077B
CENTER_NAME    = EARTH
REF_FRAME      = TEME
TIME_SYSTEM    = UTC
MEAN_ELEMENT_THEORY = SGP/SGP4

EPOCH          = 2025-11-26T22:48:02.794176
MEAN_MOTION    = 14.15546838
ECCENTRICITY   = .0004574
INCLINATION    = 70.9818
RA_OF_ASC_NODE = 208.6305
ARG_OF_PERICENTER = 296.5750
MEAN_ANOMALY   = 63.4904

EPHEMERIS_TYPE = 0
CLASSIFICATION_TYPE = U
NORAD_CAT_ID   = 23405
ELEMENT_SET_NO = 999
REV_AT_EPOCH   = 60169
BSTAR          = -.9897E-4
MEAN_MOTION_DOT = -.242E-5
MEAN_MOTION_DDOT = 0

CCSDS_OMM_VERS = 2.0
CREATION_DATE  = 
ORIGINATOR     = 

OBJECT_NAME    = ARIANE 40+ R/B
OBJECT_ID      = 1995-021B
CENTER_NAME    = EARTH
REF_FRAME      = TEME
TIME_SYSTEM    = UTC
MEAN_ELEMENT_THEORY = SGP/SGP4

EPOCH          = 2025-11-27T03:53:48.329952
MEAN_MOTION    = 14.39677263
ECCENTRICITY   = .0007907
INCLINATION    = 98.4668
RA_OF_ASC_NODE = 38.9380
ARG_OF_PERICENTER = 90.6794
MEAN_ANOMALY   = 297.9613

EPHEMERIS_TYPE = 0
CLASSIFICATION_TYPE = U
NORAD_CAT_ID   = 23561
ELEMENT_SET_NO = 999
REV_AT_EPOCH   = 60449
BSTAR          = .13499E-3
MEAN_MOTION_DOT = .379E-5
MEAN_MOTION_DDOT = 0

CCSDS_OMM_VERS = 2.0
CREATION_DATE  = 
ORIGINATOR     = 

OBJECT_NAME    = SL-16 R/B
OBJECT_ID      = 1995-058B
CENTER_NAME    = EARTH
REF_FRAME      = TEME
TIME_SYSTEM    = UTC
MEAN_ELEMENT_THEORY = SGP/SGP4

EPOCH          = 2025-11-27T03:56:05.542656
MEAN_MOTION    = 14.15474919
ECCENTRICITY   = .0014912
INCLINATION    = 71.0224
RA_OF_ASC_NODE = 35.5060
ARG_OF_PERICENTER = 274.8717
MEAN_ANOMALY   = 85.0703

EPHEMERIS_TYPE = 0
CLASSIFICATION_TYPE = U
NORAD_CAT_ID   = 23705
ELEMENT_SET_NO = 999
REV_AT_EPOCH   = 55334
BSTAR          = .60131E-4
MEAN_MOTION_DOT = .7E-6
MEAN_MOTION_DDOT = 0

CCSDS_OMM_VERS = 2.0
CREATION_DATE  = 
ORIGINATOR     = 

OBJECT_NAME    = SL-16 R/B
OBJECT_ID      = 1996-051B
CENTER_NAME    = EARTH
REF_FRAME      = TEME
TIME_SYSTEM    = UTC
MEAN_ELEMENT_THEORY = SGP/SGP4

EPOCH          = 2025-11-27T04:35:04.542720
MEAN_MOTION    = 14.12394329
ECCENTRICITY   = .0018902
INCLINATION    = 70.7608
RA_OF_ASC_NODE = 32.1957
ARG_OF_PERICENTER = 280.5679
MEAN_ANOMALY   = 79.3311

EPHEMERIS_TYPE = 0
CLASSIFICATION_TYPE = U
NORAD_CAT_ID   = 24298
ELEMENT_SET_NO = 999
REV_AT_EPOCH   = 50717
BSTAR          = .14715E-4
MEAN_MOTION_DOT = -.22E-6
MEAN_MOTION_DDOT = 0

